[
  {
    "OBJECT_NAME": "ISS (ZARYA)",
    "OBJECT_ID": "1998-067A",
    "EPOCH": "2025-05-24T20:37:27.097824",
    "MEAN_MOTION": 15.49717269,
    "ECCENTRICITY": 0.0002122,
    "INCLINATION": 51.636,
    "RA_OF_ASC_NODE": 62.6541,
    "ARG_OF_PERICENTER": 144.9421,
    "MEAN_ANOMALY": 215.1708,
    "EPHEMERIS_TYPE": 0,
    "CLASSIFICATION_TYPE": "U",
    "NORAD_CAT_ID": 25544,
    "ELEMENT_SET_NO": 999,
    "REV_AT_EPOCH": 51154,
    "BSTAR": 0.00020518,
    "MEAN_MOTION_DOT": 0.00011156,
    "MEAN_MOTION_DDOT": 0
  },
  {
    "OBJECT_NAME": "CSS (TIANHE)",
    "OBJECT_ID": "2021-035A",
    "EPOCH": "2025-05-24T10:11:05.657856",
    "MEAN_MOTION": 15.62370686,
    "ECCENTRICITY": 0.0005296,
    "INCLINATION": 41.4635,
    "RA_OF_ASC_NODE": 164.8587,
    "ARG_OF_PERICENTER": 327.2725,
    "MEAN_ANOMALY": 32.7785,
    "EPHEMERIS_TYPE": 0,
    "CLASSIFICATION_TYPE": "U",
    "NORAD_CAT_ID": 48274,
    "ELEMENT_SET_NO": 999,
    "REV_AT_EPOCH": 23244,
    "BSTAR": 0.00016704,
    "MEAN_MOTION_DOT": 0.00014916,
    "MEAN_MOTION_DDOT": 0
  },
  {
    "OBJECT_NAME": "ISS (NAUKA)",
    "OBJECT_ID": "2021-066A",
    "EPOCH": "2025-05-24T11:20:17.820672",
    "MEAN_MOTION": 15.49707838,
    "ECCENTRICITY": 0.0002134,
    "INCLINATION": 51.6361,
    "RA_OF_ASC_NODE": 64.5701,
    "ARG_OF_PERICENTER": 143.7222,
    "MEAN_ANOMALY": 216.3911,
    "EPHEMERIS_TYPE": 0,
    "CLASSIFICATION_TYPE": "U",
    "NORAD_CAT_ID": 49044,
    "ELEMENT_SET_NO": 999,
    "REV_AT_EPOCH": 21647,
    "BSTAR": 0.00019799,
    "MEAN_MOTION_DOT": 0.00010745,
    "MEAN_MOTION_DDOT": 0
  },
  {
    "OBJECT_NAME": "FREGAT DEB",
    "OBJECT_ID": "2011-037PF",
    "EPOCH": "2025-05-19T00:59:35.639808",
    "MEAN_MOTION": 12.28834273,
    "ECCENTRICITY": 0.0869949,
    "INCLINATION": 51.6315,
    "RA_OF_ASC_NODE": 92.6347,
    "ARG_OF_PERICENTER": 128.5677,
    "MEAN_ANOMALY": 239.6424,
    "EPHEMERIS_TYPE": 0,
    "CLASSIFICATION_TYPE": "U",
    "NORAD_CAT_ID": 49271,
    "ELEMENT_SET_NO": 999,
    "REV_AT_EPOCH": 17632,
    "BSTAR": 0.03654,
    "MEAN_MOTION_DOT": 0.00014961,
    "MEAN_MOTION_DDOT": 0
  },
  {
    "OBJECT_NAME": "CSS (WENTIAN)",
    "OBJECT_ID": "2022-085A",
    "EPOCH": "2025-05-24T10:11:05.657856",
    "MEAN_MOTION": 15.62370686,
    "ECCENTRICITY": 0.0005296,
    "INCLINATION": 41.4635,
    "RA_OF_ASC_NODE": 164.8587,
    "ARG_OF_PERICENTER": 327.2725,
    "MEAN_ANOMALY": 32.7785,
    "EPHEMERIS_TYPE": 0,
    "CLASSIFICATION_TYPE": "U",
    "NORAD_CAT_ID": 53239,
    "ELEMENT_SET_NO": 999,
    "REV_AT_EPOCH": 1107,
    "BSTAR": 0.00016704,
    "MEAN_MOTION_DOT": 0.00014916,
    "MEAN_MOTION_DDOT": 0
  },
  {
    "OBJECT_NAME": "CSS (MENGTIAN)",
    "OBJECT_ID": "2022-143A",
    "EPOCH": "2025-05-24T10:11:05.657856",
    "MEAN_MOTION": 15.62370686,
    "ECCENTRICITY": 0.0005296,
    "INCLINATION": 41.4635,
    "RA_OF_ASC_NODE": 164.8587,
    "ARG_OF_PERICENTER": 327.2725,
    "MEAN_ANOMALY": 32.7785,
    "EPHEMERIS_TYPE": 0,
    "CLASSIFICATION_TYPE": "U",
    "NORAD_CAT_ID": 54216,
    "ELEMENT_SET_NO": 999,
    "REV_AT_EPOCH": 11798,
    "BSTAR": 0.00016704,
    "MEAN_MOTION_DOT": 0.00014916,
    "MEAN_MOTION_DDOT": 0
  },
  {
    "OBJECT_NAME": "TIANZHOU-8",
    "OBJECT_ID": "2024-211A",
    "EPOCH": "2025-05-24T10:11:05.657856",
    "MEAN_MOTION": 15.62370686,
    "ECCENTRICITY": 0.0005296,
    "INCLINATION": 41.4635,
    "RA_OF_ASC_NODE": 164.8587,
    "ARG_OF_PERICENTER": 327.2725,
    "MEAN_ANOMALY": 32.7785,
    "EPHEMERIS_TYPE": 0,
    "CLASSIFICATION_TYPE": "U",
    "NORAD_CAT_ID": 61983,
    "ELEMENT_SET_NO": 999,
    "REV_AT_EPOCH": 382,
    "BSTAR": 0.00016704,
    "MEAN_MOTION_DOT": 0.00014916,
    "MEAN_MOTION_DDOT": 0
  },
  {
    "OBJECT_NAME": "PROGRESS-MS 29",
    "OBJECT_ID": "2024-215A",
    "EPOCH": "2025-05-24T11:20:17.820672",
    "MEAN_MOTION": 15.49707838,
    "ECCENTRICITY": 0.0002134,
    "INCLINATION": 51.6361,
    "RA_OF_ASC_NODE": 64.5701,
    "ARG_OF_PERICENTER": 143.7222,
    "MEAN_ANOMALY": 216.3911,
    "EPHEMERIS_TYPE": 0,
    "CLASSIFICATION_TYPE": "U",
    "NORAD_CAT_ID": 62030,
    "ELEMENT_SET_NO": 999,
    "REV_AT_EPOCH": 8,
    "BSTAR": 0.00019799,
    "MEAN_MOTION_DOT": 0.00010745,
    "MEAN_MOTION_DDOT": 0
  },
  {
    "OBJECT_NAME": "PROGRESS-MS 30",
    "OBJECT_ID": "2025-041B",
    "EPOCH": "2025-05-24T11:20:17.820672",
    "MEAN_MOTION": 15.49707838,
    "ECCENTRICITY": 0.0002134,
    "INCLINATION": 51.6361,
    "RA_OF_ASC_NODE": 64.5701,
    "ARG_OF_PERICENTER": 143.7222,
    "MEAN_ANOMALY": 216.3911,
    "EPHEMERIS_TYPE": 0,
    "CLASSIFICATION_TYPE": "U",
    "NORAD_CAT_ID": 63129,
    "ELEMENT_SET_NO": 999,
    "REV_AT_EPOCH": 7,
    "BSTAR": 0.00019799,
    "MEAN_MOTION_DOT": 0.00010745,
    "MEAN_MOTION_DDOT": 0
  },
  {
    "OBJECT_NAME": "CREW DRAGON 10",
    "OBJECT_ID": "2025-049A",
    "EPOCH": "2025-05-24T11:20:17.820672",
    "MEAN_MOTION": 15.49707838,
    "ECCENTRICITY": 0.0002134,
    "INCLINATION": 51.6361,
    "RA_OF_ASC_NODE": 64.5701,
    "ARG_OF_PERICENTER": 143.7222,
    "MEAN_ANOMALY": 216.3911,
    "EPHEMERIS_TYPE": 0,
    "CLASSIFICATION_TYPE": "U",
    "NORAD_CAT_ID": 63204,
    "ELEMENT_SET_NO": 999,
    "REV_AT_EPOCH": 984,
    "BSTAR": 0.00019799,
    "MEAN_MOTION_DOT": 0.00010745,
    "MEAN_MOTION_DDOT": 0
  },
  {
    "OBJECT_NAME": "SOYUZ-MS 27",
    "OBJECT_ID": "2025-072A",
    "EPOCH": "2025-05-24T11:20:17.820672",
    "MEAN_MOTION": 15.49707838,
    "ECCENTRICITY": 0.0002134,
    "INCLINATION": 51.6361,
    "RA_OF_ASC_NODE": 64.5701,
    "ARG_OF_PERICENTER": 143.7222,
    "MEAN_ANOMALY": 216.3911,
    "EPHEMERIS_TYPE": 0,
    "CLASSIFICATION_TYPE": "U",
    "NORAD_CAT_ID": 63520,
    "ELEMENT_SET_NO": 999,
    "REV_AT_EPOCH": 248,
    "BSTAR": 0.00019799,
    "MEAN_MOTION_DOT": 0.00010745,
    "MEAN_MOTION_DDOT": 0
  },
  {
    "OBJECT_NAME": "DRAGON CRS-32",
    "OBJECT_ID": "2025-080A",
    "EPOCH": "2025-05-23T23:22:15.265920",
    "MEAN_MOTION": 15.53535968,
    "ECCENTRICITY": 0.0003298,
    "INCLINATION": 51.6379,
    "RA_OF_ASC_NODE": 67.0348,
    "ARG_OF_PERICENTER": 91.9939,
    "MEAN_ANOMALY": 7.7176,
    "EPHEMERIS_TYPE": 0,
    "CLASSIFICATION_TYPE": "U",
    "NORAD_CAT_ID": 63628,
    "ELEMENT_SET_NO": 999,
    "REV_AT_EPOCH": 519,
    "BSTAR": 0.0031222,
    "MEAN_MOTION_DOT": 0.00207185,
    "MEAN_MOTION_DDOT": 0
  },
  {
    "OBJECT_NAME": "SHENZHOU-20 (SZ-20)",
    "OBJECT_ID": "2025-082A",
    "EPOCH": "2025-05-24T10:11:05.657856",
    "MEAN_MOTION": 15.62370686,
    "ECCENTRICITY": 0.0005296,
    "INCLINATION": 41.4635,
    "RA_OF_ASC_NODE": 164.8587,
    "ARG_OF_PERICENTER": 327.2725,
    "MEAN_ANOMALY": 32.7785,
    "EPHEMERIS_TYPE": 0,
    "CLASSIFICATION_TYPE": "U",
    "NORAD_CAT_ID": 63632,
    "ELEMENT_SET_NO": 999,
    "REV_AT_EPOCH": 23204,
    "BSTAR": 0.00016704,
    "MEAN_MOTION_DOT": 0.00014916,
    "MEAN_MOTION_DDOT": 0
  }
]