ISS (ZARYA)             
1 25544U 98067A   25144.85934141  .00011156  00000+0  20518-3 0  9993
2 25544  51.6360  62.6541 0002122 144.9421 215.1708 15.49717269511540
CSS (TIANHE)            
1 48274U 21035A   25144.42437104  .00014916  00000+0  16704-3 0  9998
2 48274  41.4635 164.8587 0005296 327.2725  32.7785 15.62370686232440
ISS (NAUKA)             
1 49044U 21066A   25144.47242848  .00010745  00000+0  19799-3 0  9995
2 49044  51.6361  64.5701 0002134 143.7222 216.3911 15.49707838216474
FREGAT DEB              
1 49271U 11037PF  25139.04138472  .00014961  00000+0  36540-1 0  9993
2 49271  51.6315  92.6347 0869949 128.5677 239.6424 12.28834273176327
CSS (WENTIAN)           
1 53239U 22085A   25144.42437104  .00014916  00000+0  16704-3 0  9991
2 53239  41.4635 164.8587 0005296 327.2725  32.7785 15.62370686 11071
CSS (MENGTIAN)          
1 54216U 22143A   25144.42437104  .00014916  00000+0  16704-3 0  9992
2 54216  41.4635 164.8587 0005296 327.2725  32.7785 15.62370686117984
TIANZHOU-8              
1 61983U 24211A   25144.42437104  .00014916  00000+0  16704-3 0  9999
2 61983  41.4635 164.8587 0005296 327.2725  32.7785 15.62370686  3820
PROGRESS-MS 29          
1 62030U 24215A   25144.47242848  .00010745  00000+0  19799-3 0  9994
2 62030  51.6361  64.5701 0002134 143.7222 216.3911 15.49707838    82
PROGRESS-MS 30          
1 63129U 25041B   25144.47242848  .00010745  00000+0  19799-3 0  9992
2 63129  51.6361  64.5701 0002134 143.7222 216.3911 15.49707838    71
CREW DRAGON 10          
1 63204U 25049A   25144.47242848  .00010745  00000+0  19799-3 0  9994
2 63204  51.6361  64.5701 0002134 143.7222 216.3911 15.49707838  9849
SOYUZ-MS 27             
1 63520U 25072A   25144.47242848  .00010745  00000+0  19799-3 0  9991
2 63520  51.6361  64.5701 0002134 143.7222 216.3911 15.49707838  2483
DRAGON CRS-32           
1 63628U 25080A   25143.97378780  .00207185  00000+0  31222-2 0  9998
2 63628  51.6379  67.0348 0003298  91.9939   7.7176 15.53535968  5191
SHENZHOU-20 (SZ-20)     
1 63632U 25082A   25144.42437104  .00014916  00000+0  16704-3 0  9999
2 63632  41.4635 164.8587 0005296 327.2725  32.7785 15.62370686232041
